{
    "links": {
        "self": "http://www.neowsapp.com/rest/v1/neo/3735464?api_key=iIulBulltgU6a56xZRHN4H3l9WmuAYTsLGpBGhQ2"
    },
    "id": "3735464",
    "neo_reference_id": "3735464",
    "name": "(2015 WU1)",
    "designation": "2015 WU1",
    "nasa_jpl_url": "http://ssd.jpl.nasa.gov/sbdb.cgi?sstr=3735464",
    "absolute_magnitude_h": 22.3,
    "estimated_diameter": {
        "kilometers": {
            "estimated_diameter_min": 0.0921626549,
            "estimated_diameter_max": 0.2060819612
        },
        "meters": {
            "estimated_diameter_min": 92.1626548503,
            "estimated_diameter_max": 206.0819612321
        },
        "miles": {
            "estimated_diameter_min": 0.057267201,
            "estimated_diameter_max": 0.1280533543
        },
        "feet": {
            "estimated_diameter_min": 302.370924539,
            "estimated_diameter_max": 676.1219416887
        }
    },
    "is_potentially_hazardous_asteroid": false,
    "close_approach_data": [
        {
            "close_approach_date": "2014-05-07",
            "close_approach_date_full": "2014-May-07 11:13",
            "epoch_date_close_approach": 1399461180000,
            "relative_velocity": {
                "kilometers_per_second": "10.5620750975",
                "kilometers_per_hour": "38023.4703510479",
                "miles_per_hour": "23626.3057856275"
            },
            "miss_distance": {
                "astronomical": "1.7287397529",
                "lunar": "672.4797638781",
                "kilometers": "258615784.818166323",
                "miles": "160696397.0950603374"
            },
            "orbiting_body": "Juptr"
        },
        {
            "close_approach_date": "2015-10-22",
            "close_approach_date_full": "2015-Oct-22 12:07",
            "epoch_date_close_approach": 1445515620000,
            "relative_velocity": {
                "kilometers_per_second": "21.1100695169",
                "kilometers_per_hour": "75996.250261016",
                "miles_per_hour": "47221.114502463"
            },
            "miss_distance": {
                "astronomical": "0.1372025726",
                "lunar": "53.3718007414",
                "kilometers": "20525212.619480362",
                "miles": "12753775.7213065156"
            },
            "orbiting_body": "Earth"
        }
    ],
    "orbital_data": {
        "orbit_id": "5",
        "orbit_determination_date": "2017-04-06 08:30:29",
        "first_observation_date": "2015-11-18",
        "last_observation_date": "2015-12-02",
        "data_arc_in_days": 14,
        "observations_used": 26,
        "orbit_uncertainty": "8",
        "minimum_orbit_intersection": ".0270233",
        "jupiter_tisserand_invariant": "2.938",
        "epoch_osculation": "2457345.5",
        "eccentricity": ".7943420839664423",
        "semi_major_axis": "2.477318354552027",
        "inclination": "1.734755230814723",
        "ascending_node_longitude": "141.2343880996752",
        "orbital_period": "1424.200577130702",
        "perihelion_distance": ".509480130148852",
        "perihelion_argument": "159.4237976739202",
        "aphelion_distance": "4.445156578955202",
        "perihelion_time": "2457273.968034929700",
        "mean_anomaly": "18.08137690632653",
        "mean_motion": ".2527733844380839",
        "equinox": "J2000",
        "orbit_class": {
            "orbit_class_type": "APO",
            "orbit_class_description": "Near-Earth asteroid orbits which cross the Earth’s orbit similar to that of 1862 Apollo",
            "orbit_class_range": "a (semi-major axis) > 1.0 AU; q (perihelion) < 1.017 AU"
        }
    },
    "is_sentry_object": false
}